{"type": "FeatureCollection", "features": [ {"type": "Feature", "properties": {"norad_id": 34079, "name": "IRIDIUM 33 DEB", "group": "iridium-33-debris", "lat": 84.93778199618768, "lon": 48.00705837153697, "alt_km": 611.4004388014127, "timestamp": "2025-12-26T14:28:48.088050+00:00", "meta": {"OBJECT_NAME": "IRIDIUM 33 DEB", "OBJECT_ID": "1997-051CN", "EPOCH": "2025-12-26T01:24:32.664096", "MEAN_MOTION": 14.83885214, "ECCENTRICITY": 0.00039105, "INCLINATION": 86.3778, "RA_OF_ASC_NODE": 2.6027, "ARG_OF_PERICENTER": 316.8508, "MEAN_ANOMALY": 102.125, "EPHEMERIS_TYPE": 0, "CLASSIFICATION_TYPE": "U", "NORAD_CAT_ID": 34079, "ELEMENT_SET_NO": 999, "REV_AT_EPOCH": 89175, "BSTAR": 0.0018326256, "MEAN_MOTION_DOT": 0.00015253, "MEAN_MOTION_DDOT": 0}, "tle": {"line1": "1 34079U 97051CN  25360.05871139  .00015253  00000+0  18326-2 0  9992", "line2": "2 34079  86.3778   2.6027 0003910 316.8508 102.1250 14.83885214891750"}}, "geometry": {"type": "Point", "coordinates": [48.00705837153697, 84.93778199618768]}}, {"type": "Feature", "properties": {"norad_id": 34088, "name": "IRIDIUM 33 DEB", "group": "iridium-33-debris", "lat": -35.772052014159144, "lon": -153.0391141429331, "alt_km": 597.4051673500107, "timestamp": "2025-12-26T14:28:48.088060+00:00", "meta": {"OBJECT_NAME": "IRIDIUM 33 DEB", "OBJECT_ID": "1997-051CX", "EPOCH": "2025-12-26T02:30:32.480640", "MEAN_MOTION": 14.91984405, "ECCENTRICITY": 0.00071563, "INCLINATION": 86.3845, "RA_OF_ASC_NODE": 24.5792, "ARG_OF_PERICENTER": 135.5751, "MEAN_ANOMALY": 282.7745, "EPHEMERIS_TYPE": 0, "CLASSIFICATION_TYPE": "U", "NORAD_CAT_ID": 34088, "ELEMENT_SET_NO": 999, "REV_AT_EPOCH": 88941, "BSTAR": 0.0022346157, "MEAN_MOTION_DOT": 0.00022718, "MEAN_MOTION_DDOT": 0}, "tle": {"line1": "1 34088U 97051CX  25360.10454260  .00022718  00000+0  22346-2 0  9991", "line2": "2 34088  86.3845  24.5792 0007156 135.5751 282.7745 14.91984405889414"}}, "geometry": {"type": "Point", "coordinates": [-153.0391141429331, -35.772052014159144]}}, {"type": "Feature", "properties": {"norad_id": 34091, "name": "IRIDIUM 33 DEB", "group": "iridium-33-debris", "lat": -65.15090420291153, "lon": 52.53665950466396, "alt_km": 612.5051126210319, "timestamp": "2025-12-26T14:28:48.088071+00:00", "meta": {"OBJECT_NAME": "IRIDIUM 33 DEB", "OBJECT_ID": "1997-051DA", "EPOCH": "2025-12-26T03:26:13.490880", "MEAN_MOTION": 14.82802245, "ECCENTRICITY": 0.00343844, "INCLINATION": 86.3408, "RA_OF_ASC_NODE": 60.6907, "ARG_OF_PERICENTER": 245.3053, "MEAN_ANOMALY": 114.4589, "EPHEMERIS_TYPE": 0, "CLASSIFICATION_TYPE": "U", "NORAD_CAT_ID": 34091, "ELEMENT_SET_NO": 999, "REV_AT_EPOCH": 88065, "BSTAR": 0.0044294719, "MEAN_MOTION_DOT": 0.00036356, "MEAN_MOTION_DDOT": 0}, "tle": {"line1": "1 34091U 97051DA  25360.14321170  .00036356  00000+0  44295-2 0  9992", "line2": "2 34091  86.3408  60.6907 0034384 245.3053 114.4589 14.82802245880655"}}, "geometry": {"type": "Point", "coordinates": [52.53665950466396, -65.15090420291153]}}, {"type": "Feature", "properties": {"norad_id": 34097, "name": "IRIDIUM 33 DEB", "group": "iridium-33-debris", "lat": -23.672542379549824, "lon": -6.381754430284023, "alt_km": 726.1894720583423, "timestamp": "2025-12-26T14:28:48.088088+00:00", "meta": {"OBJECT_NAME": "IRIDIUM 33 DEB", "OBJECT_ID": "1997-051DG", "EPOCH": "2025-12-26T06:13:14.223360", "MEAN_MOTION": 14.34887845, "ECCENTRICITY": 0.00812395, "INCLINATION": 86.2008, "RA_OF_ASC_NODE": 355.4394, "ARG_OF_PERICENTER": 317.8681, "MEAN_ANOMALY": 41.6287, "EPHEMERIS_TYPE": 0, "CLASSIFICATION_TYPE": "U", "NORAD_CAT_ID": 34097, "ELEMENT_SET_NO": 999, "REV_AT_EPOCH": 87313, "BSTAR": 0.0016535417, "MEAN_MOTION_DOT": 4.894e-05, "MEAN_MOTION_DDOT": 0}, "tle": {"line1": "1 34097U 97051DG  25360.25919240  .00004894  00000+0  16535-2 0  9999", "line2": "2 34097  86.2008 355.4394 0081239 317.8681  41.6287 14.34887845873131"}}, "geometry": {"type": "Point", "coordinates": [-6.381754430284023, -23.672542379549824]}}, {"type": "Feature", "properties": {"norad_id": 34145, "name": "IRIDIUM 33 DEB", "group": "iridium-33-debris", "lat": -78.47496557506929, "lon": 165.3079330153469, "alt_km": 792.4427109688695, "timestamp": "2025-12-26T14:28:48.088099+00:00", "meta": {"OBJECT_NAME": "IRIDIUM 33 DEB", "OBJECT_ID": "1997-051DY", "EPOCH": "2025-12-25T22:17:54.684096", "MEAN_MOTION": 14.42385613, "ECCENTRICITY": 0.0055445, "INCLINATION": 86.2129, "RA_OF_ASC_NODE": 326.6523, "ARG_OF_PERICENTER": 51.9493, "MEAN_ANOMALY": 308.6692, "EPHEMERIS_TYPE": 0, "CLASSIFICATION_TYPE": "U", "NORAD_CAT_ID": 34145, "ELEMENT_SET_NO": 999, "REV_AT_EPOCH": 87828, "BSTAR": 0.0013201, "MEAN_MOTION_DOT": 4.465e-05, "MEAN_MOTION_DDOT": 0}, "tle": {"line1": "1 34145U 97051DY  25359.92910514  .00004465  00000+0  13201-2 0  9991", "line2": "2 34145  86.2129 326.6523 0055445  51.9493 308.6692 14.42385613878282"}}, "geometry": {"type": "Point", "coordinates": [165.3079330153469, -78.47496557506929]}}, {"type": "Feature", "properties": {"norad_id": 34146, "name": "IRIDIUM 33 DEB", "group": "iridium-33-debris", "lat": -53.864090039862745, "lon": 168.78110653287226, "alt_km": 725.8948231234799, "timestamp": "2025-12-26T14:28:48.088110+00:00", "meta": {"OBJECT_NAME": "IRIDIUM 33 DEB", "OBJECT_ID": "1997-051DZ", "EPOCH": "2025-12-26T05:10:53.931072", "MEAN_MOTION": 14.49135058, "ECCENTRICITY": 0.00270494, "INCLINATION": 86.2845, "RA_OF_ASC_NODE": 343.8464, "ARG_OF_PERICENTER": 175.301, "MEAN_ANOMALY": 198.4852, "EPHEMERIS_TYPE": 0, "CLASSIFICATION_TYPE": "U", "NORAD_CAT_ID": 34146, "ELEMENT_SET_NO": 999, "REV_AT_EPOCH": 88302, "BSTAR": 0.00092782077, "MEAN_MOTION_DOT": 3.563e-05, "MEAN_MOTION_DDOT": 0}, "tle": {"line1": "1 34146U 97051DZ  25360.21590198  .00003563  00000+0  92782-3 0  9998", "line2": "2 34146  86.2845 343.8464 0027049 175.3010 198.4852 14.49135058883022"}}, "geometry": {"type": "Point", "coordinates": [168.78110653287226, -53.864090039862745]}}, {"type": "Feature", "properties": {"norad_id": 34159, "name": "IRIDIUM 33 DEB", "group": "iridium-33-debris", "lat": 39.00247089016399, "lon": -140.63476428253486, "alt_km": 763.1167311992622, "timestamp": "2025-12-26T14:28:48.088121+00:00", "meta": {"OBJECT_NAME": "IRIDIUM 33 DEB", "OBJECT_ID": "1997-051EN", "EPOCH": "2025-12-26T02:08:20.180544", "MEAN_MOTION": 14.38525461, "ECCENTRICITY": 0.00262795, "INCLINATION": 86.3493, "RA_OF_ASC_NODE": 42.5483, "ARG_OF_PERICENTER": 240.6679, "MEAN_ANOMALY": 119.1893, "EPHEMERIS_TYPE": 0, "CLASSIFICATION_TYPE": "U", "NORAD_CAT_ID": 34159, "ELEMENT_SET_NO": 999, "REV_AT_EPOCH": 88151, "BSTAR": 0.00037825721, "MEAN_MOTION_DOT": 1.179e-05, "MEAN_MOTION_DDOT": 0}, "tle": {"line1": "1 34159U 97051EN  25360.08912246  .00001179  00000+0  37826-3 0  9998", "line2": "2 34159  86.3493  42.5483 0026279 240.6679 119.1893 14.38525461881517"}}, "geometry": {"type": "Point", "coordinates": [-140.63476428253486, 39.00247089016399]}}, {"type": "Feature", "properties": {"norad_id": 34350, "name": "IRIDIUM 33 DEB", "group": "iridium-33-debris", "lat": 26.223319983736044, "lon": 174.97777567313344, "alt_km": 731.6328038528582, "timestamp": "2025-12-26T14:28:48.088131+00:00", "meta": {"OBJECT_NAME": "IRIDIUM 33 DEB", "OBJECT_ID": "1997-051ES", "EPOCH": "2025-12-26T00:45:52.672896", "MEAN_MOTION": 14.45417432, "ECCENTRICITY": 0.00235213, "INCLINATION": 86.3273, "RA_OF_ASC_NODE": 357.0387, "ARG_OF_PERICENTER": 94.6131, "MEAN_ANOMALY": 326.9931, "EPHEMERIS_TYPE": 0, "CLASSIFICATION_TYPE": "U", "NORAD_CAT_ID": 34350, "ELEMENT_SET_NO": 999, "REV_AT_EPOCH": 88485, "BSTAR": 0.00033943033, "MEAN_MOTION_DOT": 1.218e-05, "MEAN_MOTION_DDOT": 0}, "tle": {"line1": "1 34350U 97051ES  25360.03185964  .00001218  00000+0  33943-3 0  9995", "line2": "2 34350  86.3273 357.0387 0023521  94.6131 326.9931 14.45417432884857"}}, "geometry": {"type": "Point", "coordinates": [174.97777567313344, 26.223319983736044]}}, {"type": "Feature", "properties": {"norad_id": 34366, "name": "IRIDIUM 33 DEB", "group": "iridium-33-debris", "lat": -15.623509345943841, "lon": -135.70054838943122, "alt_km": 719.4520030892036, "timestamp": "2025-12-26T14:28:48.088142+00:00", "meta": {"OBJECT_NAME": "IRIDIUM 33 DEB", "OBJECT_ID": "1997-051FJ", "EPOCH": "2025-12-26T03:56:31.227648", "MEAN_MOTION": 14.54157583, "ECCENTRICITY": 0.00230515, "INCLINATION": 86.3679, "RA_OF_ASC_NODE": 43.4727, "ARG_OF_PERICENTER": 98.1181, "MEAN_ANOMALY": 320.0434, "EPHEMERIS_TYPE": 0, "CLASSIFICATION_TYPE": "U", "NORAD_CAT_ID": 34366, "ELEMENT_SET_NO": 999, "REV_AT_EPOCH": 88377, "BSTAR": 0.00085396715, "MEAN_MOTION_DOT": 3.644e-05, "MEAN_MOTION_DDOT": 0}, "tle": {"line1": "1 34366U 97051FJ  25360.16425032  .00003644  00000+0  85397-3 0  9994", "line2": "2 34366  86.3679  43.4727 0023051  98.1181 320.0434 14.54157583883771"}}, "geometry": {"type": "Point", "coordinates": [-135.70054838943122, -15.623509345943841]}}, {"type": "Feature", "properties": {"norad_id": 34375, "name": "IRIDIUM 33 DEB", "group": "iridium-33-debris", "lat": 68.09951468665813, "lon": -11.814625520910734, "alt_km": 759.4943859490359, "timestamp": "2025-12-26T14:28:48.088153+00:00", "meta": {"OBJECT_NAME": "IRIDIUM 33 DEB", "OBJECT_ID": "1997-051FT", "EPOCH": "2025-12-25T12:52:34.268736", "MEAN_MOTION": 14.18014941, "ECCENTRICITY": 0.0103685, "INCLINATION": 86.4324, "RA_OF_ASC_NODE": 177.5431, "ARG_OF_PERICENTER": 86.7144, "MEAN_ANOMALY": 341.7037, "EPHEMERIS_TYPE": 0, "CLASSIFICATION_TYPE": "U", "NORAD_CAT_ID": 34375, "ELEMENT_SET_NO": 999, "REV_AT_EPOCH": 86893, "BSTAR": 0.00040149, "MEAN_MOTION_DOT": 8.86e-06, "MEAN_MOTION_DDOT": 0}, "tle": {"line1": "1 34375U 97051FT  25359.53650774  .00000886  00000+0  40149-3 0  9997", "line2": "2 34375  86.4324 177.5431 0103685  86.7144 341.7037 14.18014941868934"}}, "geometry": {"type": "Point", "coordinates": [-11.814625520910734, 68.09951468665813]}}]}